CUTE-1 (CO-55)          
1 27844U 03031E   26165.01650922  .00000269  00000+0  13536-3 0  9994
2 27844  98.6736 173.6152 0009316 187.2201 172.8845 14.24333986191224
CUBESAT XI-IV (CO-57)   
1 27848U 03031J   26165.00337660  .00000226  00000+0  11831-3 0  9997
2 27848  98.6766 173.3175 0008816 206.8109 153.2615 14.23619332190927
CUBESAT XI-V            
1 28895U 05043F   26164.39375696  .00001317  00000+0  21486-3 0  9996
2 28895  98.2979 319.9359 0013416 213.2696 146.7669 14.72622172101196
CUTE-1.7+APD II (CO-65) 
1 32785U 08021C   26165.13308892  .00005152  00000+0  32589-3 0  9992
2 32785  97.8270 146.4881 0010159  48.7687 311.4415 15.09428458984734
CANX-2                  
1 32790U 08021H   26164.89878970  .00004690  00000+0  32935-3 0  9990
2 32790  97.8622 144.6119 0011508  60.3061 299.9309 15.05592573984312
SEEDS II (CO-66)        
1 32791U 08021J   26164.93655222  .00018728  00000+0  59582-3 0  9993
2 32791  97.7509 162.6789 0001549  14.7739 345.3547 15.32650243986791
SWISSCUBE               
1 35932U 09051B   26164.67936614  .00000937  00000+0  19470-3 0  9990
2 35932  98.4039  72.5065 0005755 215.4372 144.6447 14.62475781888647
BEESAT-1                
1 35933U 09051C   26164.68697727  .00000783  00000+0  16700-3 0  9993
2 35933  98.3968  72.1570 0004054 230.6846 129.3995 14.61715545888676
ITUPSAT1                
1 35935U 09051E   26164.67480330  .00000706  00000+0  15577-3 0  9990
2 35935  98.4053  71.3404 0006156 247.1048 112.9502 14.60435999888227
TISAT 1                 
1 36799U 10035E   26165.11191103  .00020816  00000+0  68379-3 0  9992
2 36799  98.0710 111.3882 0001006 172.7308 187.3947 15.31604484867231
AEROCUBE 4.5A           
1 38767U 12048K   26164.96429410  .00420826  76435-4  11387-2 0  9993
2 38767  64.6249  38.6678 0019802 221.1058 138.8613 15.93639179372141
STRAND-1                
1 39090U 13009E   26164.99264802  .00000257  00000+0  10072-3 0  9999
2 39090  98.3921 345.3057 0007584 236.1034 123.9432 14.37161671696603
BRITE-AUSTRIA           
1 39091U 13009F   26165.07379632  .00000158  00000+0  68293-4 0  9997
2 39091  98.3993 344.5866 0009042 246.9900 113.0333 14.36540989696606
NEE-01 PEGASO           
1 39151U 13018B   26164.38011978  .00002095  00000+0  20384-3 0  9993
2 39151  98.1215 308.4049 0012775 171.4218 188.7221 14.93643611710130
POPACS 2                
1 39269U 13055E   26165.22389899  .00013658  00000+0  23173-3 0  9994
2 39269  80.9900 147.5841 0416876 203.2965 154.8876 14.91145737662775
POPACS 3                
1 39270U 13055F   26164.47752371  .00009975  00000+0  23442-3 0  9997
2 39270  81.0022 233.2084 0552493  81.2860 285.0480 14.56060284638012
ZACUBE-1 (TSHEPISOSAT)  
1 39417U 13066B   26165.14115578  .00003529  00000+0  27550-3 0  9992
2 39417  97.8083 127.4617 0040472 258.3287 101.3393 15.01173415680272
WNISAT-1                
1 39423U 13066H   26164.98566678  .00000756  00000+0  14653-3 0  9990
2 39423  97.7197 314.3692 0161834 241.7496 116.7288 14.58057519666261
TRITON-1                
1 39427U 13066M   26165.18916830  .00002619  00000+0  31771-3 0  9996
2 39427  97.8256  75.0648 0088371 243.8091 115.4016 14.81699990673648
GOMX-1                  
1 39430U 13066Q   26165.18984862  .00001992  00000+0  30268-3 0  9993
2 39430  97.6484   5.8423 0130187  87.0635 274.5462 14.69450244669471
CUBEBUG-2 (LO-74)       
1 39440U 13066AA  26165.11577809  .00004533  00000+0  41941-3 0  9990
2 39440  97.8903 114.0809 0058614  38.9303 321.6115 14.93738647676539
NEE-02 KRYSAOR          
1 39441U 13066AB  26165.11302729  .00002524  00000+0  27928-3 0  9995
2 39441  97.8892 104.3496 0067709  80.0536 280.8313 14.86606396675747
FUNCUBE-1 (AO-73)       
1 39444U 13066AE  26164.87461990  .00007372  00000+0  45803-3 0  9994
2 39444  97.8267 136.2511 0035377 212.6416 147.2626 15.09452478679163
UWE-3                   
1 39446U 13066AG  26164.80677422  .00004526  00000+0  38955-3 0  9996
2 39446  97.8688 120.8577 0048115 332.4032  27.4636 14.96999955677071
BRITE-CA1 (TORONTO)     
1 40020U 14033L   26164.91233455  .00000658  00000+0  10669-3 0  9991
2 40020  97.9734 293.9007 0077282 287.6929  71.5853 14.72672671641739
DUCHIFAT-1              
1 40021U 14033M   26165.14309872  .00112865  00000+0  11822-2 0  9990
2 40021  98.0474 223.8762 0003417 119.3968 240.7631 15.64039026655277
NANOSATC-BR1            
1 40024U 14033Q   26165.06907580  .00017308  00000+0  57336-3 0  9991
2 40024  98.0722 197.1804 0004118 171.0394 189.0919 15.31368944653509
QB50P1                  
1 40025U 14033R   26164.98653312  .00008764  00000+0  43164-3 0  9993
2 40025  98.0960 175.9078 0007562 228.0389 132.0200 15.18216590652542
QB50P2                  
1 40032U 14033Y   26164.93008994  .00007288  00000+0  39256-3 0  9993
2 40032  98.0744 161.6074 0007696 173.7222 186.4107 15.15121608652178
PERSEUS-M2              
1 40037U 14033AD  26165.18608078  .00001476  00000+0  13868-3 0  9999
2 40037  97.9956 115.6658 0011056 315.2373  44.7954 14.95501344650336
